{
  "type": "FeatureCollection",
  "features": [
    {
      "type": "Feature",
      "properties": {
        "norad_id": 64694,
        "name": "GOSAT-GW (IBUKI GW)",
        "group": "resource",
        "lat": 75.2064950232024,
        "lon": -100.42627300382692,
        "alt_km": 660.7029023872192,
        "timestamp": "2025-12-22T14:45:57.042890+00:00",
        "meta_object_name": "GOSAT-GW (IBUKI GW)",
        "meta_object_id": "2025-141A",
        "meta_epoch": "2025-12-22T06:13:55.733376",
        "meta_mean_motion": 14.67563406,
        "meta_eccentricity": 0.00014296,
        "meta_inclination": 98.0437,
        "meta_ra_of_asc_node": 291.6005,
        "meta_arg_of_pericenter": 84.4046,
        "meta_mean_anomaly": 275.7322,
        "meta_ephemeris_type": 0,
        "meta_classification_type": "U",
        "meta_norad_cat_id": 64694,
        "meta_element_set_no": 999,
        "meta_rev_at_epoch": 2589,
        "meta_bstar": 0.00017800889,
        "meta_mean_motion_dot": 9.62e-06,
        "meta_mean_motion_ddot": 0,
        "tle_line1": "1 64694U 25141A   25356.25967284  .00000962  00000+0  17801-3 0  9992",
        "tle_line2": "2 64694  98.0437 291.6005 0001429  84.4046 275.7322 14.67563406 25891"
      },
      "geometry": {
        "type": "Point",
        "coordinates": [
          -100.42627300382692,
          75.2064950232024
        ]
      }
    },
    {
      "type": "Feature",
      "properties": {
        "norad_id": 64876,
        "name": "IONOSFERA-M 3",
        "group": "resource",
        "lat": -61.87001241622771,
        "lon": 121.79995131952745,
        "alt_km": 828.9442079975997,
        "timestamp": "2025-12-22T14:45:57.042900+00:00",
        "meta_object_name": "IONOSFERA-M 3",
        "meta_object_id": "2025-155A",
        "meta_epoch": "2025-12-22T06:52:06.009888",
        "meta_mean_motion": 14.21443295,
        "meta_eccentricity": 0.00019506,
        "meta_inclination": 98.5796,
        "meta_ra_of_asc_node": 317.8826,
        "meta_arg_of_pericenter": 44.4446,
        "meta_mean_anomaly": 315.6888,
        "meta_ephemeris_type": 0,
        "meta_classification_type": "U",
        "meta_norad_cat_id": 64876,
        "meta_element_set_no": 999,
        "meta_rev_at_epoch": 2127,
        "meta_bstar": 5.5732244e-05,
        "meta_mean_motion_dot": 7.9e-07,
        "meta_mean_motion_ddot": 0,
        "tle_line1": "1 64876U 25155A   25356.28618067  .00000079  00000+0  55732-4 0  9999",
        "tle_line2": "2 64876  98.5796 317.8826 0001950  44.4446 315.6888 14.21443295 21279"
      },
      "geometry": {
        "type": "Point",
        "coordinates": [
          121.79995131952745,
          -61.87001241622771
        ]
      }
    },
    {
      "type": "Feature",
      "properties": {
        "norad_id": 64877,
        "name": "IONOSFERA-M 4",
        "group": "resource",
        "lat": 62.4401916523288,
        "lon": -58.692192664363134,
        "alt_km": 813.3941765715163,
        "timestamp": "2025-12-22T14:45:57.042910+00:00",
        "meta_object_name": "IONOSFERA-M 4",
        "meta_object_id": "2025-155B",
        "meta_epoch": "2025-12-22T06:01:13.325088",
        "meta_mean_motion": 14.21444384,
        "meta_eccentricity": 0.0001364,
        "meta_inclination": 98.5795,
        "meta_ra_of_asc_node": 317.7677,
        "meta_arg_of_pericenter": 54.3088,
        "meta_mean_anomaly": 305.8217,
        "meta_ephemeris_type": 0,
        "meta_classification_type": "U",
        "meta_norad_cat_id": 64877,
        "meta_element_set_no": 999,
        "meta_rev_at_epoch": 2126,
        "meta_bstar": 4.6857978e-05,
        "meta_mean_motion_dot": 6e-07,
        "meta_mean_motion_ddot": 0,
        "tle_line1": "1 64877U 25155B   25356.25084867  .00000060  00000+0  46858-4 0  9991",
        "tle_line2": "2 64877  98.5795 317.7677 0001364  54.3088 305.8217 14.21444384 21269"
      },
      "geometry": {
        "type": "Point",
        "coordinates": [
          -58.692192664363134,
          62.4401916523288
        ]
      }
    },
    {
      "type": "Feature",
      "properties": {
        "norad_id": 64899,
        "name": "MICROCARB",
        "group": "resource",
        "lat": -35.00151975244495,
        "lon": -113.85069016360592,
        "alt_km": 662.9137907363393,
        "timestamp": "2025-12-22T14:45:57.042920+00:00",
        "meta_object_name": "MICROCARB",
        "meta_object_id": "2025-156A",
        "meta_epoch": "2025-12-22T04:00:16.111296",
        "meta_mean_motion": 14.72071696,
        "meta_eccentricity": 0.00175613,
        "meta_inclination": 98.0014,
        "meta_ra_of_asc_node": 71.3608,
        "meta_arg_of_pericenter": 116.4521,
        "meta_mean_anomaly": 243.8491,
        "meta_ephemeris_type": 0,
        "meta_classification_type": "U",
        "meta_norad_cat_id": 64899,
        "meta_element_set_no": 999,
        "meta_rev_at_epoch": 2192,
        "meta_bstar": 0.00011167733,
        "meta_mean_motion_dot": 6.54e-06,
        "meta_mean_motion_ddot": 0,
        "tle_line1": "1 64899U 25156A   25356.16685314  .00000654  00000+0  11168-3 0  9994",
        "tle_line2": "2 64899  98.0014  71.3608 0017561 116.4521 243.8491 14.72071696 21923"
      },
      "geometry": {
        "type": "Point",
        "coordinates": [
          -113.85069016360592,
          -35.00151975244495
        ]
      }
    },
    {
      "type": "Feature",
      "properties": {
        "norad_id": 64900,
        "name": "CO3D 3",
        "group": "resource",
        "lat": 14.734631597860924,
        "lon": -105.19089863898574,
        "alt_km": 506.1843522826939,
        "timestamp": "2025-12-22T14:45:57.042930+00:00",
        "meta_object_name": "CO3D 3",
        "meta_object_id": "2025-156B",
        "meta_epoch": "2025-12-22T06:08:37.268160",
        "meta_mean_motion": 15.20206821,
        "meta_eccentricity": 0.00013541,
        "meta_inclination": 97.4341,
        "meta_ra_of_asc_node": 72.4871,
        "meta_arg_of_pericenter": 76.2175,
        "meta_mean_anomaly": 283.9211,
        "meta_ephemeris_type": 0,
        "meta_classification_type": "U",
        "meta_norad_cat_id": 64900,
        "meta_element_set_no": 999,
        "meta_rev_at_epoch": 2265,
        "meta_bstar": 0.0002833908,
        "meta_mean_motion_dot": 6.073e-05,
        "meta_mean_motion_ddot": 0,
        "tle_line1": "1 64900U 25156B   25356.25598690  .00006073  00000+0  28339-3 0  9996",
        "tle_line2": "2 64900  97.4341  72.4871 0001354  76.2175 283.9211 15.20206821 22657"
      },
      "geometry": {
        "type": "Point",
        "coordinates": [
          -105.19089863898574,
          14.734631597860924
        ]
      }
    },
    {
      "type": "Feature",
      "properties": {
        "norad_id": 64901,
        "name": "CO3D 4",
        "group": "resource",
        "lat": 15.585728319724758,
        "lon": -105.07171272200377,
        "alt_km": 505.1142479303335,
        "timestamp": "2025-12-22T14:45:57.042941+00:00",
        "meta_object_name": "CO3D 4",
        "meta_object_id": "2025-156C",
        "meta_epoch": "2025-12-22T06:08:50.560800",
        "meta_mean_motion": 15.20214251,
        "meta_eccentricity": 0.00013282,
        "meta_inclination": 97.434,
        "meta_ra_of_asc_node": 72.4871,
        "meta_arg_of_pericenter": 164.9387,
        "meta_mean_anomaly": 195.1888,
        "meta_ephemeris_type": 0,
        "meta_classification_type": "U",
        "meta_norad_cat_id": 64901,
        "meta_element_set_no": 999,
        "meta_rev_at_epoch": 2265,
        "meta_bstar": 0.00029882235,
        "meta_mean_motion_dot": 6.409e-05,
        "meta_mean_motion_ddot": 0,
        "tle_line1": "1 64901U 25156C   25356.25614075  .00006409  00000+0  29882-3 0  9990",
        "tle_line2": "2 64901  97.4340  72.4871 0001328 164.9387 195.1888 15.20214251 22658"
      },
      "geometry": {
        "type": "Point",
        "coordinates": [
          -105.07171272200377,
          15.585728319724758
        ]
      }
    },
    {
      "type": "Feature",
      "properties": {
        "norad_id": 64902,
        "name": "CO3D 2",
        "group": "resource",
        "lat": -13.478166281505574,
        "lon": 74.53386051151175,
        "alt_km": 509.75030516394054,
        "timestamp": "2025-12-22T14:45:57.042951+00:00",
        "meta_object_name": "CO3D 2",
        "meta_object_id": "2025-156D",
        "meta_epoch": "2025-12-21T16:42:32.405760",
        "meta_mean_motion": 15.20195819,
        "meta_eccentricity": 7.56e-05,
        "meta_inclination": 97.434,
        "meta_ra_of_asc_node": 71.8347,
        "meta_arg_of_pericenter": 63.7971,
        "meta_mean_anomaly": 296.3342,
        "meta_ephemeris_type": 0,
        "meta_classification_type": "U",
        "meta_norad_cat_id": 64902,
        "meta_element_set_no": 999,
        "meta_rev_at_epoch": 2256,
        "meta_bstar": 0.00013571365,
        "meta_mean_motion_dot": 2.871e-05,
        "meta_mean_motion_ddot": 0,
        "tle_line1": "1 64902U 25156D   25355.69620840  .00002871  00000+0  13571-3 0  9992",
        "tle_line2": "2 64902  97.4340  71.8347 0000756  63.7971 296.3342 15.20195819 22566"
      },
      "geometry": {
        "type": "Point",
        "coordinates": [
          74.53386051151175,
          -13.478166281505574
        ]
      }
    }
  ]
}